{
  "type": "FeatureCollection",
  "features": [
    {
      "type": "Feature",
      "properties": {
        "norad_id": 66383,
        "name": "STARLINK-35690",
        "group": "last-30-days",
        "lat": -20.308558077311567,
        "lon": 147.777050532184,
        "alt_km": 439.9260563575972,
        "timestamp": "2025-12-02T17:49:10.798655+00:00",
        "meta_object_name": "STARLINK-35690",
        "meta_object_id": "2025-257D",
        "meta_epoch": "2025-12-02T12:00:05.998752",
        "meta_mean_motion": 15.44398464,
        "meta_eccentricity": 0.0001309,
        "meta_inclination": 53.1588,
        "meta_ra_of_asc_node": 312.8178,
        "meta_arg_of_pericenter": 99.1263,
        "meta_mean_anomaly": 198.396,
        "meta_ephemeris_type": 0,
        "meta_classification_type": "U",
        "meta_norad_cat_id": 66383,
        "meta_element_set_no": 999,
        "meta_rev_at_epoch": 485,
        "meta_bstar": -0.04937,
        "meta_mean_motion_dot": -0.02059059,
        "meta_mean_motion_ddot": 0,
        "tle_line1": "1 66383U 25257D   25336.50006943 -.02059059  00000+0 -49370-1 0  9998",
        "tle_line2": "2 66383  53.1588 312.8178 0001309  99.1263 198.3960 15.44398464  4852"
      },
      "geometry": {
        "type": "Point",
        "coordinates": [
          147.777050532184,
          -20.308558077311567
        ]
      }
    },
    {
      "type": "Feature",
      "properties": {
        "norad_id": 66384,
        "name": "STARLINK-35662",
        "group": "last-30-days",
        "lat": -21.733845214172348,
        "lon": 149.05507460106176,
        "alt_km": 440.24135574673437,
        "timestamp": "2025-12-02T17:49:10.798666+00:00",
        "meta_object_name": "STARLINK-35662",
        "meta_object_id": "2025-257E",
        "meta_epoch": "2025-12-02T12:00:05.998752",
        "meta_mean_motion": 15.44385809,
        "meta_eccentricity": 0.0001247,
        "meta_inclination": 53.1586,
        "meta_ra_of_asc_node": 312.8148,
        "meta_arg_of_pericenter": 85.8248,
        "meta_mean_anomaly": 213.5706,
        "meta_ephemeris_type": 0,
        "meta_classification_type": "U",
        "meta_norad_cat_id": 66384,
        "meta_element_set_no": 999,
        "meta_rev_at_epoch": 485,
        "meta_bstar": -0.049228,
        "meta_mean_motion_dot": -0.02052952,
        "meta_mean_motion_ddot": 0,
        "tle_line1": "1 66384U 25257E   25336.50006943 -.02052952  00000+0 -49228-1 0  9996",
        "tle_line2": "2 66384  53.1586 312.8148 0001247  85.8248 213.5706 15.44385809  4851"
      },
      "geometry": {
        "type": "Point",
        "coordinates": [
          149.05507460106176,
          -21.733845214172348
        ]
      }
    },
    {
      "type": "Feature",
      "properties": {
        "norad_id": 66385,
        "name": "STARLINK-35659",
        "group": "last-30-days",
        "lat": -5.642640441724003,
        "lon": 135.95398625541853,
        "alt_km": 446.62387578210837,
        "timestamp": "2025-12-02T17:49:10.798676+00:00",
        "meta_object_name": "STARLINK-35659",
        "meta_object_id": "2025-257F",
        "meta_epoch": "2025-12-02T12:00:05.998752",
        "meta_mean_motion": 15.42073087,
        "meta_eccentricity": 0.0001444,
        "meta_inclination": 53.1586,
        "meta_ra_of_asc_node": 312.8512,
        "meta_arg_of_pericenter": 95.852,
        "meta_mean_anomaly": 185.2676,
        "meta_ephemeris_type": 0,
        "meta_classification_type": "U",
        "meta_norad_cat_id": 66385,
        "meta_element_set_no": 999,
        "meta_rev_at_epoch": 485,
        "meta_bstar": -0.078615,
        "meta_mean_motion_dot": -0.03007988,
        "meta_mean_motion_ddot": 0,
        "tle_line1": "1 66385U 25257F   25336.50006943 -.03007988  00000+0 -78615-1 0  9999",
        "tle_line2": "2 66385  53.1586 312.8512 0001444  95.8520 185.2676 15.42073087  4851"
      },
      "geometry": {
        "type": "Point",
        "coordinates": [
          135.95398625541853,
          -5.642640441724003
        ]
      }
    },
    {
      "type": "Feature",
      "properties": {
        "norad_id": 66386,
        "name": "STARLINK-35651",
        "group": "last-30-days",
        "lat": -30.8976990517567,
        "lon": 158.29904541366764,
        "alt_km": 432.50194409544656,
        "timestamp": "2025-12-02T17:49:10.798686+00:00",
        "meta_object_name": "STARLINK-35651",
        "meta_object_id": "2025-257G",
        "meta_epoch": "2025-12-02T12:00:05.998752",
        "meta_mean_motion": 15.4723379,
        "meta_eccentricity": 0.0001164,
        "meta_inclination": 53.1583,
        "meta_ra_of_asc_node": 312.7946,
        "meta_arg_of_pericenter": 101.6966,
        "meta_mean_anomaly": 207.5819,
        "meta_ephemeris_type": 0,
        "meta_classification_type": "U",
        "meta_norad_cat_id": 66386,
        "meta_element_set_no": 999,
        "meta_rev_at_epoch": 485,
        "meta_bstar": -0.044804,
        "meta_mean_motion_dot": -0.02061235,
        "meta_mean_motion_ddot": 0,
        "tle_line1": "1 66386U 25257G   25336.50006943 -.02061235  00000+0 -44804-1 0  9997",
        "tle_line2": "2 66386  53.1583 312.7946 0001164 101.6966 207.5819 15.47233790  4859"
      },
      "geometry": {
        "type": "Point",
        "coordinates": [
          158.29904541366764,
          -30.8976990517567
        ]
      }
    },
    {
      "type": "Feature",
      "properties": {
        "norad_id": 66387,
        "name": "STARLINK-35661",
        "group": "last-30-days",
        "lat": -32.23816859546722,
        "lon": 159.85593825204566,
        "alt_km": 432.6507270496395,
        "timestamp": "2025-12-02T17:49:10.798698+00:00",
        "meta_object_name": "STARLINK-35661",
        "meta_object_id": "2025-257H",
        "meta_epoch": "2025-12-02T12:00:05.998752",
        "meta_mean_motion": 15.47226103,
        "meta_eccentricity": 9.22e-05,
        "meta_inclination": 53.1582,
        "meta_ra_of_asc_node": 312.7912,
        "meta_arg_of_pericenter": 88.6417,
        "meta_mean_anomaly": 222.5394,
        "meta_ephemeris_type": 0,
        "meta_classification_type": "U",
        "meta_norad_cat_id": 66387,
        "meta_element_set_no": 999,
        "meta_rev_at_epoch": 485,
        "meta_bstar": -0.045036,
        "meta_mean_motion_dot": -0.02070079,
        "meta_mean_motion_ddot": 0,
        "tle_line1": "1 66387U 25257H   25336.50006943 -.02070079  00000+0 -45036-1 0  9992",
        "tle_line2": "2 66387  53.1582 312.7912 0000922  88.6417 222.5394 15.47226103  4853"
      },
      "geometry": {
        "type": "Point",
        "coordinates": [
          159.85593825204566,
          -32.23816859546722
        ]
      }
    },
    {
      "type": "Feature",
      "properties": {
        "norad_id": 66388,
        "name": "STARLINK-35647",
        "group": "last-30-days",
        "lat": -36.29389614368276,
        "lon": 165.0346239662394,
        "alt_km": 424.7646692326316,
        "timestamp": "2025-12-02T17:49:10.798708+00:00",
        "meta_object_name": "STARLINK-35647",
        "meta_object_id": "2025-257J",
        "meta_epoch": "2025-12-02T12:00:05.998752",
        "meta_mean_motion": 15.49732773,
        "meta_eccentricity": 8.69e-05,
        "meta_inclination": 53.1587,
        "meta_ra_of_asc_node": 312.784,
        "meta_arg_of_pericenter": 87.6881,
        "meta_mean_anomaly": 227.0983,
        "meta_ephemeris_type": 0,
        "meta_classification_type": "U",
        "meta_norad_cat_id": 66388,
        "meta_element_set_no": 999,
        "meta_rev_at_epoch": 485,
        "meta_bstar": -0.031414,
        "meta_mean_motion_dot": -0.01595759,
        "meta_mean_motion_ddot": 0,
        "tle_line1": "1 66388U 25257J   25336.50006943 -.01595759  00000+0 -31414-1 0  9994",
        "tle_line2": "2 66388  53.1587 312.7840 0000869  87.6881 227.0983 15.49732773  4854"
      },
      "geometry": {
        "type": "Point",
        "coordinates": [
          165.0346239662394,
          -36.29389614368276
        ]
      }
    },
    {
      "type": "Feature",
      "properties": {
        "norad_id": 66389,
        "name": "STARLINK-35694",
        "group": "last-30-days",
        "lat": -37.691751912342454,
        "lon": 167.02145529421733,
        "alt_km": 423.92868349395303,
        "timestamp": "2025-12-02T17:49:10.798718+00:00",
        "meta_object_name": "STARLINK-35694",
        "meta_object_id": "2025-257K",
        "meta_epoch": "2025-12-02T12:00:05.998752",
        "meta_mean_motion": 15.49459165,
        "meta_eccentricity": 0.0001575,
        "meta_inclination": 53.1583,
        "meta_ra_of_asc_node": 312.7788,
        "meta_arg_of_pericenter": 79.9255,
        "meta_mean_anomaly": 236.9087,
        "meta_ephemeris_type": 0,
        "meta_classification_type": "U",
        "meta_norad_cat_id": 66389,
        "meta_element_set_no": 999,
        "meta_rev_at_epoch": 485,
        "meta_bstar": -0.0051941,
        "meta_mean_motion_dot": -0.00280699,
        "meta_mean_motion_ddot": 0,
        "tle_line1": "1 66389U 25257K   25336.50006943 -.00280699  00000+0 -51941-2 0  9996",
        "tle_line2": "2 66389  53.1583 312.7788 0001575  79.9255 236.9087 15.49459165  4851"
      },
      "geometry": {
        "type": "Point",
        "coordinates": [
          167.02145529421733,
          -37.691751912342454
        ]
      }
    }
  ]
}